STARLINK-31303          
1 59239U 24049J   26068.51233289 -.00000356  00000+0 -34210-5 0  9992
2 59239  43.0029 133.6902 0001716 276.0007  84.0649 15.27569977112507
HAWK-11B                
1 62379U 24247C   26068.44730104  .00009093  00000+0  32842-3 0  9993
2 62379  45.0161 115.7610 0004690 333.0326  27.0314 15.28847070 67738
